start=new Date('2021-09-10T00:00:00.000Z').valueOf();
sats=[{"FILE":"3111654","GP_ID":"184381587","APOAPSIS":"548.514","MEAN_ANOMALY":"253.4636","ECCENTRICITY":"0.00018950","MEAN_MOTION":"15.06403962","RA_OF_ASC_NODE":"91.6755","OBJECT_ID":"2021-021BH","TIME_SYSTEM":"UTC","RCS_SIZE":"LARGE","COUNTRY_CODE":"US","EPOCH":"2021-09-08T19:48:51.367392","INCLINATION":"53.0544","NORAD_CAT_ID":"47915","SITE":"AFETR","DECAY_DATE":null,"EPHEMERIS_TYPE":"0","REV_AT_EPOCH":"2851","CLASSIFICATION_TYPE":"U","REF_FRAME":"TEME","BSTAR":"0.00000893660000","OBJECT_NAME":"STARLINK-2376","CENTER_NAME":"EARTH","TLE_LINE1":"1 47915U 21021BH  21251.82559453 -.00000149  00000-0  89366-5 0  9996","MEAN_MOTION_DDOT":"0.0000000000000","LAUNCH_DATE":"2021-03-14","PERIAPSIS":"545.889","PERIOD":"95.592","SEMIMAJOR_AXIS":"6925.336","TLE_LINE2":"2 47915  53.0544  91.6755 0001895 106.6561 253.4636 15.06403962 28511","OBJECT_TYPE":"PAYLOAD","MEAN_MOTION_DOT":"-0.00000149","MEAN_ELEMENT_THEORY":"SGP4","ARG_OF_PERICENTER":"106.6561","ELEMENT_SET_NO":"999"},{"ELEMENT_SET_NO":"999","OBJECT_TYPE":"PAYLOAD","MEAN_ELEMENT_THEORY":"SGP4","MEAN_MOTION_DOT":"-0.00000896","ARG_OF_PERICENTER":"86.0902","PERIOD":"95.592","SEMIMAJOR_AXIS":"6925.353","TLE_LINE2":"2 47916  53.0535  72.0710 0002539  86.0902 274.0377 15.06398488 28856","PERIAPSIS":"545.460","LAUNCH_DATE":"2021-03-14","MEAN_MOTION_DDOT":"0.0000000000000","OBJECT_NAME":"STARLINK-2378","CENTER_NAME":"EARTH","TLE_LINE1":"1 47916U 21021BJ  21252.86088552 -.00000896  00000-0 -41236-4 0  9992","REF_FRAME":"TEME","BSTAR":"-0.00004123600000","DECAY_DATE":null,"EPHEMERIS_TYPE":"0","CLASSIFICATION_TYPE":"U","REV_AT_EPOCH":"2885","NORAD_CAT_ID":"47916","SITE":"AFETR","INCLINATION":"53.0535","RCS_SIZE":"LARGE","COUNTRY_CODE":"US","EPOCH":"2021-09-09T20:39:40.508928","OBJECT_ID":"2021-021BJ","TIME_SYSTEM":"UTC","MEAN_MOTION":"15.06398488","RA_OF_ASC_NODE":"72.0710","APOAPSIS":"548.977","MEAN_ANOMALY":"274.0377","ECCENTRICITY":"0.00025390","FILE":"3111873","GP_ID":"184409748"},{"REF_FRAME":"TEME","BSTAR":"0.00007306000000","CENTER_NAME":"EARTH","OBJECT_NAME":"STARLINK-2397","TLE_LINE1":"1 47917U 21021BK  21252.86733729  .00000807  00000-0  73060-4 0  9996","MEAN_MOTION_DDOT":"0.0000000000000","LAUNCH_DATE":"2021-03-14","PERIAPSIS":"546.177","SEMIMAJOR_AXIS":"6925.312","PERIOD":"95.591","TLE_LINE2":"2 47917  53.0569  82.0362 0001445  87.1626 272.9528 15.06411845 28700","OBJECT_TYPE":"PAYLOAD","MEAN_ELEMENT_THEORY":"SGP4","MEAN_MOTION_DOT":"0.00000807","ARG_OF_PERICENTER":"87.1626","ELEMENT_SET_NO":"999","FILE":"3111873","GP_ID":"184408007","MEAN_ANOMALY":"272.9528","APOAPSIS":"548.178","ECCENTRICITY":"0.00014450","MEAN_MOTION":"15.06411845","RA_OF_ASC_NODE":"82.0362","OBJECT_ID":"2021-021BK","TIME_SYSTEM":"UTC","RCS_SIZE":"LARGE","COUNTRY_CODE":"US","EPOCH":"2021-09-09T20:48:57.941856","INCLINATION":"53.0569","NORAD_CAT_ID":"47917","SITE":"AFETR","DECAY_DATE":null,"EPHEMERIS_TYPE":"0","CLASSIFICATION_TYPE":"U","REV_AT_EPOCH":"2870"},{"MEAN_MOTION_DDOT":"0.0000000000000","LAUNCH_DATE":"2021-03-14","BSTAR":"0.00008861600000","REF_FRAME":"TEME","TLE_LINE1":"1 47918U 21021BL  21252.87470600  .00001038  00000-0  88616-4 0  9994","CENTER_NAME":"EARTH","OBJECT_NAME":"STARLINK-2398","ARG_OF_PERICENTER":"94.5313","MEAN_MOTION_DOT":"0.00001038","MEAN_ELEMENT_THEORY":"SGP4","OBJECT_TYPE":"PAYLOAD","ELEMENT_SET_NO":"999","PERIAPSIS":"546.046","TLE_LINE2":"2 47918  53.0560  81.9995 0001717  94.5313 265.5872 15.06392815 28737","SEMIMAJOR_AXIS":"6925.371","PERIOD":"95.593","RA_OF_ASC_NODE":"81.9995","MEAN_MOTION":"15.06392815","TIME_SYSTEM":"UTC","OBJECT_ID":"2021-021BL","GP_ID":"184408257","FILE":"3111873","ECCENTRICITY":"0.00017170","MEAN_ANOMALY":"265.5872","APOAPSIS":"548.425","SITE":"AFETR","NORAD_CAT_ID":"47918","CLASSIFICATION_TYPE":"U","REV_AT_EPOCH":"2873","EPHEMERIS_TYPE":"0","DECAY_DATE":null,"EPOCH":"2021-09-09T20:59:34.598400","COUNTRY_CODE":"US","RCS_SIZE":"LARGE","INCLINATION":"53.0560"},{"PERIAPSIS":"545.734","PERIOD":"95.592","SEMIMAJOR_AXIS":"6925.359","TLE_LINE2":"2 47919  53.0543  92.0738 0002152  84.8718 275.2517 15.06396574 28574","OBJECT_TYPE":"PAYLOAD","MEAN_ELEMENT_THEORY":"SGP4","MEAN_MOTION_DOT":"0.00001255","ARG_OF_PERICENTER":"84.8718","ELEMENT_SET_NO":"999","REF_FRAME":"TEME","BSTAR":"0.00010319000000","OBJECT_NAME":"STARLINK-2405","CENTER_NAME":"EARTH","TLE_LINE1":"1 47919U 21021BM  21252.85903997  .00001255  00000-0  10319-3 0  9998","MEAN_MOTION_DDOT":"0.0000000000000","LAUNCH_DATE":"2021-03-14","RCS_SIZE":"LARGE","COUNTRY_CODE":"US","EPOCH":"2021-09-09T20:37:01.053408","INCLINATION":"53.0543","NORAD_CAT_ID":"47919","SITE":"AFETR","DECAY_DATE":null,"EPHEMERIS_TYPE":"0","CLASSIFICATION_TYPE":"U","REV_AT_EPOCH":"2857","FILE":"3111873","GP_ID":"184409009","APOAPSIS":"548.714","MEAN_ANOMALY":"275.2517","ECCENTRICITY":"0.00021520","MEAN_MOTION":"15.06396574","RA_OF_ASC_NODE":"92.0738","TIME_SYSTEM":"UTC","OBJECT_ID":"2021-021BM"},{"MEAN_MOTION":"15.06386099","RA_OF_ASC_NODE":"136.4400","OBJECT_ID":"2021-024A","TIME_SYSTEM":"UTC","FILE":"3111873","GP_ID":"184409755","APOAPSIS":"548.758","MEAN_ANOMALY":"286.7116","ECCENTRICITY":"0.00021680","NORAD_CAT_ID":"47977","SITE":"AFETR","EPHEMERIS_TYPE":"0","DECAY_DATE":null,"CLASSIFICATION_TYPE":"U","REV_AT_EPOCH":"356","RCS_SIZE":"LARGE","EPOCH":"2021-09-10T00:00:02.000160","COUNTRY_CODE":"US","INCLINATION":"53.0526","MEAN_MOTION_DDOT":"0.0000000000000","LAUNCH_DATE":"2021-03-24","REF_FRAME":"TEME","BSTAR":"0.00007124000000","CENTER_NAME":"EARTH","OBJECT_NAME":"STARLINK-2087","TLE_LINE1":"1 47977U 21024A   21253.00002315  .00000779  00000-0  71240-4 0  9998","MEAN_ELEMENT_THEORY":"SGP4","MEAN_MOTION_DOT":"0.00000779","OBJECT_TYPE":"PAYLOAD","ARG_OF_PERICENTER":"70.8862","ELEMENT_SET_NO":"999","PERIAPSIS":"545.755","PERIOD":"95.593","SEMIMAJOR_AXIS":"6925.391","TLE_LINE2":"2 47977  53.0526 136.4400 0002168  70.8862 286.7116 15.06386099  3565"},{"MEAN_ELEMENT_THEORY":"SGP4","MEAN_MOTION_DOT":"-0.00026495","OBJECT_TYPE":"PAYLOAD","ARG_OF_PERICENTER":"75.7035","ELEMENT_SET_NO":"999","PERIAPSIS":"545.853","PERIOD":"95.591","SEMIMAJOR_AXIS":"6925.305","TLE_LINE2":"2 47978  53.0538 146.8332 0001902  75.7035  74.6601 15.06414109 26583","MEAN_MOTION_DDOT":"0.0000000000000","LAUNCH_DATE":"2021-03-24","REF_FRAME":"TEME","BSTAR":"-0.00176570000000","OBJECT_NAME":"STARLINK-1647","CENTER_NAME":"EARTH","TLE_LINE1":"1 47978U 21024B   21252.91667824 -.00026495  00000-0 -17657-2 0  9995","NORAD_CAT_ID":"47978","SITE":"AFETR","EPHEMERIS_TYPE":"0","DECAY_DATE":null,"REV_AT_EPOCH":"2658","CLASSIFICATION_TYPE":"U","RCS_SIZE":"LARGE","EPOCH":"2021-09-09T22:00:00.999936","COUNTRY_CODE":"US","INCLINATION":"53.0538","RA_OF_ASC_NODE":"146.8332","MEAN_MOTION":"15.06414109","OBJECT_ID":"2021-024B","TIME_SYSTEM":"UTC","FILE":"3111807","GP_ID":"184386148","APOAPSIS":"548.488","MEAN_ANOMALY":"74.6601","ECCENTRICITY":"0.00019020"},{"REV_AT_EPOCH":"370","CLASSIFICATION_TYPE":"U","DECAY_DATE":null,"EPHEMERIS_TYPE":"0","SITE":"AFETR","NORAD_CAT_ID":"47979","INCLINATION":"53.0456","COUNTRY_CODE":"US","EPOCH":"2021-09-09T22:00:00.999936","RCS_SIZE":"LARGE","TIME_SYSTEM":"UTC","OBJECT_ID":"2021-024C","RA_OF_ASC_NODE":"83.2434","MEAN_MOTION":"15.47734159","ECCENTRICITY":"0.00011590","APOAPSIS":"424.146","MEAN_ANOMALY":"315.2049","GP_ID":"184408264","FILE":"3111873","ELEMENT_SET_NO":"999","ARG_OF_PERICENTER":"67.8957","OBJECT_TYPE":"PAYLOAD","MEAN_ELEMENT_THEORY":"SGP4","MEAN_MOTION_DOT":"-0.00808554","TLE_LINE2":"2 47979  53.0456  83.2434 0001159  67.8957 315.2049 15.47734159  3703","PERIOD":"93.039","SEMIMAJOR_AXIS":"6801.493","PERIAPSIS":"422.570","LAUNCH_DATE":"2021-03-24","MEAN_MOTION_DDOT":"0.0000000000000","TLE_LINE1":"1 47979U 21024C   21252.91667824 -.00808554  00000-0 -16756-1 0  9998","CENTER_NAME":"EARTH","OBJECT_NAME":"STARLINK-2325","BSTAR":"-0.01675600000000","REF_FRAME":"TEME"},{"ELEMENT_SET_NO":"999","ARG_OF_PERICENTER":"3.2837","MEAN_MOTION_DOT":"-0.00022788","MEAN_ELEMENT_THEORY":"SGP4","OBJECT_TYPE":"PAYLOAD","TLE_LINE2":"2 47980  53.0458  81.8459 0004324   3.2837 338.7626 15.73202631 27482","SEMIMAJOR_AXIS":"6727.888","PERIOD":"91.533","PERIAPSIS":"346.844","LAUNCH_DATE":"2021-03-24","MEAN_MOTION_DDOT":"0.0000000000000","TLE_LINE1":"1 47980U 21024D   21252.91667824 -.00022788  00000-0 -15821-3 0  9991","CENTER_NAME":"EARTH","OBJECT_NAME":"STARLINK-2312","BSTAR":"-0.00015821000000","REF_FRAME":"TEME","REV_AT_EPOCH":"2748","CLASSIFICATION_TYPE":"U","EPHEMERIS_TYPE":"0","DECAY_DATE":null,"SITE":"AFETR","NORAD_CAT_ID":"47980","INCLINATION":"53.0458","EPOCH":"2021-09-09T22:00:00.999936","COUNTRY_CODE":"US","RCS_SIZE":"LARGE","TIME_SYSTEM":"UTC","OBJECT_ID":"2021-024D","MEAN_MOTION":"15.73202631","RA_OF_ASC_NODE":"81.8459","ECCENTRICITY":"0.00043240","APOAPSIS":"352.662","MEAN_ANOMALY":"338.7626","GP_ID":"184386140","FILE":"3111807"},{"ECCENTRICITY":"0.00019580","APOAPSIS":"548.553","MEAN_ANOMALY":"134.8502","GP_ID":"184386149","FILE":"3111807","TIME_SYSTEM":"UTC","OBJECT_ID":"2021-024E","MEAN_MOTION":"15.06405402","RA_OF_ASC_NODE":"146.8288","INCLINATION":"53.0559","EPOCH":"2021-09-09T22:00:00.999936","COUNTRY_CODE":"US","RCS_SIZE":"LARGE","REV_AT_EPOCH":"2658","CLASSIFICATION_TYPE":"U","EPHEMERIS_TYPE":"0","DECAY_DATE":null,"SITE":"AFETR","NORAD_CAT_ID":"47981","TLE_LINE1":"1 47981U 21024E   21252.91667824 -.00040467  00000-0 -27128-2 0  9998","OBJECT_NAME":"STARLINK-2303","CENTER_NAME":"EARTH","BSTAR":"-0.00271280000000","REF_FRAME":"TEME","LAUNCH_DATE":"2021-03-24","MEAN_MOTION_DDOT":"0.0000000000000","TLE_LINE2":"2 47981  53.0559 146.8288 0001958  75.5459 134.8502 15.06405402 26584","SEMIMAJOR_AXIS":"6925.332","PERIOD":"95.592","PERIAPSIS":"545.841","ELEMENT_SET_NO":"999","ARG_OF_PERICENTER":"75.5459","MEAN_ELEMENT_THEORY":"SGP4","MEAN_MOTION_DOT":"-0.00040467","OBJECT_TYPE":"PAYLOAD"}];
